{
  "norad_id": 68806,
  "name": "STARLINK-37370",
  "history": [
    {
      "epoch": "2026-04-27T14:27:12.259872Z",
      "apogee_km": 269.6389736727597,
      "perigee_km": 268.48488699447444,
      "latitude_deg": 2.624324896311923e-05,
      "longitude_deg": -109.63436841654459,
      "height_km": 272.4102150561198,
      "semi_major_axis_km": 6647.198930333617,
      "eccentricity": 8.681e-05,
      "inclination_deg": 97.2867,
      "raan_deg": 322.7564,
      "arg_perigee_deg": 104.6046,
      "mean_anomaly_deg": 255.533,
      "mean_motion_rev_day": 16.01934475
    },
    {
      "epoch": "2026-04-29T20:00:01.999008Z",
      "apogee_km": 297.09321805625586,
      "perigee_km": 294.9294591648777,
      "latitude_deg": -37.98693026605757,
      "longitude_deg": -18.322406763560394,
      "height_km": 311.2245460323903,
      "semi_major_axis_km": 6674.1483386105665,
      "eccentricity": 0.0001621,
      "inclination_deg": 97.2852,
      "raan_deg": 325.1718,
      "arg_perigee_deg": 93.6414,
      "mean_anomaly_deg": 124.4086,
      "mean_motion_rev_day": 15.92241648
    },
    {
      "epoch": "2026-04-30T14:00:01.999872Z",
      "apogee_km": 306.27479497208606,
      "perigee_km": 303.961319401491,
      "latitude_deg": -9.887374272009264,
      "longitude_deg": 76.17196968419296,
      "height_km": 310.43418189958584,
      "semi_major_axis_km": 6683.255057186789,
      "eccentricity": 0.00017308,
      "inclination_deg": 97.2851,
      "raan_deg": 325.9779,
      "arg_perigee_deg": 83.5778,
      "mean_anomaly_deg": 106.1818,
      "mean_motion_rev_day": 15.88988333
    },
    {
      "epoch": "2026-05-02T10:00:03.000096Z",
      "apogee_km": 328.96898737532865,
      "perigee_km": 327.5217500601593,
      "latitude_deg": -23.021087921257536,
      "longitude_deg": 134.48509355794363,
      "height_km": 337.357942889795,
      "semi_major_axis_km": 6706.382368717744,
      "eccentricity": 0.0001079,
      "inclination_deg": 97.2848,
      "raan_deg": 327.9288,
      "arg_perigee_deg": 90.7356,
      "mean_anomaly_deg": 112.2184,
      "mean_motion_rev_day": 15.80775859
    },
    {
      "epoch": "2026-05-03T20:00:01.999008Z",
      "apogee_km": 339.10072977971686,
      "perigee_km": 337.14898408409135,
      "latitude_deg": -25.707897777635523,
      "longitude_deg": 171.19407946648616,
      "height_km": 348.5108380377863,
      "semi_major_axis_km": 6716.261856931904,
      "eccentricity": 0.0001453,
      "inclination_deg": 97.2842,
      "raan_deg": 329.4255,
      "arg_perigee_deg": 102.0632,
      "mean_anomaly_deg": 232.2803,
      "mean_motion_rev_day": 15.77289207
    }
  ]
}